1 04362U 70025A   22286.57261803 -.00000003  00000-0  71021-4 0  9990
2 04362  99.9481 200.6326 0008030  34.2420 139.7650 13.44639255576395
1  4362U 70025A   22286.57261803 -.00000003  00000-0  71021-4 0  9990
2  4362  99.9481 200.6326 0008030  34.2420 139.7650 13.44639255576856
1 04362U 70025A   22286.69259296 -.00000003  00000-0  71971-4 0  9990
2 04362  99.9482 200.7513 0008021  33.9827   0.4950 13.44639286576416
1 04362U 70025A   22287.53999913 -.00000003  00000-0  70340-4 0  9990
2 04362  99.9482 201.5894 0007983  31.9669 142.4857 13.44639344576525
1 04362U 70025A   22288.42010993 -.00000005  00000-0  68482-4 0  9997
2 04362  99.9482 202.4599 0007960  29.9582  82.7035 13.44639444576641
1  4362U 70025A   22288.69789899 -.00000001  00000-0  73920-4 0  9993
2  4362  99.9483 202.7347 0007953  29.2933 347.3854 13.44639496577143
1 04362U 70025A   22288.78233556  .00000000  00000-0  75772-4 0  9992
2 04362  99.9483 202.8182 0007951  29.1107  36.0947 13.44639522576695
1 04362U 70025A   22289.60234870  .00000000  00000-0  76505-4 0  9999
2 04362  99.9483 203.6292 0007929  27.2248  45.4216 13.44639603576802
1 04362U 70025A   22289.73979149 -.00000004  00000-0  69594-4 0  9993
2 04362  99.9484 203.7652 0007925  26.9084 350.7224 13.44639588576829
1 04362U 70025A   22290.51619472 -.00000011  00000-0  57630-4 0  9997
2 04362  99.9484 204.5331 0007903  25.0685 149.0068 13.44639600576926
1 04362U 70025A   22290.79152140 -.00000011  00000-0  57617-4 0  9996
2 04362  99.9485 204.8054 0007893  24.3897  41.7891 13.44639642576969
1  4362U 70025A   22290.79152140 -.00000011  00000-0  57617-4 0  9996
2  4362  99.9485 204.8054 0007893  24.3897  41.7891 13.44639642577421
1 04362U 70025A   22291.55785123 -.00000014  00000-0  53150-4 0  9995
2 04362  99.9486 205.5634 0007872  22.6107 151.2754 13.44639686577069
1 04362U 70025A   22291.67801848 -.00000013  00000-0  53648-4 0  9992
2 04362  99.9486 205.6823 0007868  22.3169  12.9703 13.44639703577089
1 04362U 70025A   22292.52866969 -.00000015  00000-0  51095-4 0  9998
2 04362  99.9486 206.5236 0007841  20.3554 170.6083 13.44639748577198
1  4362U 70025A   22293.49263387 -.00000018  00000-0  45928-4 0  9991
2  4362  99.9486 207.4771 0007816  18.0957 156.7831 13.44639818577784
1 04362U 70025A   22293.56679444 -.00000016  00000-0  49114-4 0  9993
2 04362  99.9486 207.5504 0007813  17.9163 155.7711 13.44639833577337
1 04362U 70025A   22293.68688924 -.00000017  00000-0  48075-4 0  9995
2 04362  99.9486 207.6692 0007810  17.6356  17.1024 13.44639841577353
1 04362U 70025A   22294.53405735 -.00000021  00000-0  41250-4 0  9990
2 04362  99.9487 208.5071 0007787  15.6835 157.8790 13.44639849577460
1 04362U 70025A   22295.41471271 -.00000020  00000-0  42052-4 0  9996
2 04362  99.9487 209.3782 0007764  13.6194 100.7881 13.44639909577587
1 04362U 70025A   22295.76592573 -.00000021  00000-0  41051-4 0  9992
2 04362  99.9488 209.7255 0007756  12.8863   0.7831 13.44639920577635
1  4362U 70025A   22295.76592573 -.00000021  00000-0  41051-4 0  9992
2  4362  99.9488 209.7255 0007756  12.8863   0.7831 13.44639920578096
1 04362U 70025A   22296.54333269 -.00000022  00000-0  38699-4 0  9999
2 04362  99.9488 210.4945 0007732  11.0473 163.9241 13.44639932577733
1 04362U 70025A   22296.74170837 -.00000020  00000-0  41878-4 0  9992
2 04362  99.9488 210.6907 0007724  10.5339  44.2319 13.44639967577767
1 04362U 70025A   22297.42319376 -.00000023  00000-0  37259-4 0  9992
2 04362  99.9489 211.3648 0007705   8.9632 103.0104 13.44639974577858
1 04362U 70025A   22297.77405303 -.00000019  00000-0  44511-4 0  9990
2 04362  99.9489 211.7118 0007693   8.1667   1.3576 13.44640021577904
1  4362U 70025A   22297.77405303 -.00000019  00000-0  44511-4 0  9990
2  4362  99.9489 211.7118 0007693   8.1667   1.3576 13.44640021578365
1 04362U 70025A   22298.31655193 -.00000017  00000-0  46899-4 0  9994
2 04362  99.9489 212.2484 0007680   6.9155 107.3632 13.44640061577971
1 04362U 70025A   22298.75075686 -.00000018  00000-0  45541-4 0  9999
2 04362  99.9490 212.6779 0007665   5.8200  49.2578 13.44640058578033
1 04362U 70025A   22299.51922304 -.00000014  00000-0  51983-4 0  9995
2 04362  99.9491 213.4380 0007642   4.0073 169.1149 13.44640099578137
1 04362U 70025A   22299.79540507 -.00000012  00000-0  56574-4 0  9995
2 04362  99.9491 213.7112 0007630   3.2215  66.1432 13.44640160578173
1 04362U 70025A   22300.56103586 -.00000004  00000-0  69031-4 0  9998
2 04362  99.9492 214.4686 0007603   1.3772 172.3141 13.44640233578274
1 04362U 70025A   22300.76146708 -.00000005  00000-0  68121-4 0  9993
2 04362  99.9492 214.6668 0007597   0.8973  62.5338 13.44640248578303
1 04362U 70025A   22301.52827608 -.00000003  00000-0  71616-4 0  9994
2 04362  99.9493 215.4253 0007575 359.0732 174.3846 13.44640275578408
1 04362U 70025A   22301.72692655 -.00000004  00000-0  70168-4 0  9990
2 04362  99.9493 215.6218 0007570 358.5377  56.0442 13.44640294578437
1  4362U 70025A   22302.19792090 -.00000006  00000-0  65999-4 0  9994
2  4362  99.9494 216.0877 0007556 357.4185 175.9601 13.44640319578956
1 04362U 70025A   22302.40779167 -.00000002  00000-0  72498-4 0  9996
2 04362  99.9494 216.2953 0007552 356.8777 111.9120 13.44640354578527
1 04362U 70025A   22302.57016184 -.00000004  00000-0  69808-4 0  9990
2 04362  99.9494 216.4559 0007548 356.4802 177.8999 13.44640350578544
1 04362U 70025A   22303.37582178  .00000002  00000-0  80147-4 0  9996
2 04362  99.9495 217.2528 0007523 354.4987 117.8804 13.44640460578658
1 04362U 70025A   22303.73045267  .00000000  00000-0  76086-4 0  9994
2 04362  99.9495 217.6036 0007511 353.6868  34.4913 13.44640458578700
1 04362U 70025A   22304.50464391 -.00000004  00000-0  70284-4 0  9992
2 04362  99.9496 218.3694 0007492 351.8806 182.0426 13.44640508578805
1  4362U 70025A   22304.50464391 -.00000004  00000-0  70284-4 0  9992
2  4362  99.9496 218.3694 0007492 351.8806 182.0426 13.44640508579266
1 04362U 70025A   22305.38401617 -.00000003  00000-0  71818-4 0  9994
2 04362  99.9497 219.2393 0007462 349.7732 118.7896 13.44640618578925
1 04362U 70025A   22305.74036047 -.00000003  00000-0  71115-4 0  9995
2 04362  99.9497 219.5918 0007451 348.8633  43.7890 13.44640650578971
1 04362U 70025A   22306.51368444 -.00000007  00000-0  63795-4 0  9999
2 04362  99.9497 220.3568 0007428 347.0634 187.1383 13.44640685579078
1  4362U 70025A   22306.51368444 -.00000007  00000-0  63795-4 0  9999
2  4362  99.9497 220.3568 0007428 347.0634 187.1383 13.44640685579539
1 04362U 70025A   22307.39286132 -.00000006  00000-0  66197-4 0  9997
2 04362  99.9498 221.2265 0007402 344.8914 123.0051 13.44640803579197
1 04362U 70025A   22308.35998907 -.00000008  00000-0  62888-4 0  9999
2 04362  99.9498 222.1831 0007372 342.4734 124.6479 13.44640873579329
1  4362U 70025A   22309.19082469 -.00000016  00000-0  49374-4 0  9993
2  4362  99.9499 223.0050 0007347 340.4817 186.4461 13.44640882579894
1 04362U 70025A   22309.56416626 -.00000018  00000-0  46125-4 0  9993
2 04362  99.9499 223.3743 0007333 339.5595 193.6955 13.44640871579484
1 04362U 70025A   22310.36911838 -.00000016  00000-0  49018-4 0  9990
2 04362  99.9500 224.1706 0007309 337.4959 130.3349 13.44640941579594
1  4362U 70025A   22311.57335198 -.00000016  00000-0  48460-4 0  9993
2  4362  99.9502 225.3619 0007274 334.4411 199.7971 13.44640990580218
1 04362U 70025A   22311.68773657 -.00000015  00000-0  51472-4 0  9997
2 04362  99.9502 225.4751 0007273 334.1217  33.5402 13.44641017579770
1 04362U 70025A   22312.54066697 -.00000011  00000-0  57562-4 0  9994
2 04362  99.9503 226.3188 0007249 331.9542 202.4156 13.44641067579884
1 04362U 70025A   22313.63394485 -.00000003  00000-0  71738-4 0  9996
2 04362  99.9505 227.4004 0007218 329.1834  94.7610 13.44641206580035
1  4362U 70025A   22313.63394485 -.00000003  00000-0  71738-4 0  9996
2  4362  99.9505 227.4004 0007218 329.1834  94.7610 13.44641206580495
1 04362U 70025A   22314.54960072 -.00000003  00000-0  71244-4 0  9990
2 04362  99.9506 228.3062 0007194 326.8256 207.3102 13.44641267580153
1 04362U 70025A   22314.74982328  .00000000  00000-0  76045-4 0  9990
2 04362  99.9506 228.5043 0007191 326.2790  96.5879 13.44641310580189
1 04362U 70025A   22315.43051506  .00000002  00000-0  79261-4 0  9997
2 04362  99.9506 229.1776 0007174 324.5233 151.7152 13.44641369580275
1 04362U 70025A   22315.79238799  .00000002  00000-0  79502-4 0  9995
2 04362  99.9506 229.5356 0007166 323.5486 103.5295 13.44641417580326
1  4362U 70025A   22315.79238799  .00000002  00000-0  79502-4 0  9995
2  4362  99.9506 229.5356 0007166 323.5486 103.5295 13.44641417580786
1 04362U 70025A   22316.61056056  .00000002  00000-0  79215-4 0  9992
2 04362  99.9507 230.3450 0007147 321.5058 104.1136 13.44641474580430
1 04362U 70025A   22316.75709644  .00000002  00000-0  79037-4 0  9997
2 04362  99.9507 230.4900 0007142 321.1434  93.4564 13.44641490580455
1 04362U 70025A   22317.52931944 -.00000002  00000-0  73464-4 0  9992
2 04362  99.9507 231.2539 0007125 319.1239 231.7005 13.44641503580556
1 04362U 70025A   22317.80176247 -.00000002  00000-0  72487-4 0  9994
2 04362  99.9508 231.5234 0007120 318.4362 110.5418 13.44641538580590
1  4362U 70025A   22317.80176247 -.00000002  00000-0  72487-4 0  9994
2  4362  99.9508 231.5234 0007120 318.4362 110.5418 13.44641538581052
1 04362U 70025A   22318.49288073 -.00000008  00000-0  63216-4 0  9997
2 04362  99.9508 232.2071 0007104 316.6402 216.1562 13.44641563580685
1 04362U 70025A   22318.76712039 -.00000007  00000-0  64471-4 0  9994
2 04362  99.9508 232.4784 0007097 315.9373 103.7054 13.44641599580729
1 04362U 70025A   22319.53460313 -.00000009  00000-0  61247-4 0  9995
2 04362  99.9509 233.2377 0007078 314.0038 218.9295 13.44641625580821
1 04362U 70025A   22319.73337201 -.00000009  00000-0  60922-4 0  9995
2 04362  99.9509 233.4343 0007073 313.4870 101.1443 13.44641649580855
1  4362U 70025A   22320.50226556 -.00000010  00000-0  60067-4 0  9994
2  4362  99.9509 234.1950 0007055 311.4979 223.2504 13.44641719581410
